[
    { "area": "黒部・宇奈月", "industry": "体験・観光施設", "name": "総湯 湯めどころ宇奈月", "nameEn": "Yumedokoro Unazuki", "latitude": 36.8163167, "longitude": 137.5827842 },
    { "area": "黒部・宇奈月", "industry": "重要交通施設", "name": "黒部市地域観光ギャラリー（黒部宇奈月温泉駅）", "nameEn": "Kurobe City Tourist Infomation Gallery", "latitude": 36.87376826, "longitude": 137.4812761 },
    { "area": "黒部・宇奈月", "industry": "体験・観光施設", "name": "道の駅KOKOくろべ", "nameEn": "Roadside Station Koko Kurobe", "latitude": 36.87731058, "longitude": 137.4278201 },
    { "area": "黒部・宇奈月", "industry": "体験・観光施設", "name": "魚津水族館", "nameEn": "Uozu Aquarium", "latitude": 36.7983172, "longitude": 137.388018 },
    { "area": "富山", "industry": "体験・観光施設", "name": "富山市岩瀬エリア（北陸銀行岩瀬支店）", "nameEn": "Hokuriku Bank Iwase Branch", "latitude": 36.75666116, "longitude": 137.2287237 },
    { "area": "富山", "industry": "重要交通施設", "name": "ますのすし本舗 源（富山駅）", "nameEn": "Masunosushi Minamoto Toyama Sta", "latitude": 36.70133602, "longitude": 137.2133793 },
    { "area": "富山", "industry": "体験・観光施設", "name": "富山市まちなか観光案内所", "nameEn": "Toyama Downtown Tourism Information", "latitude": 36.69383116, "longitude": 137.2124736 },
    { "area": "富山", "industry": "重要交通施設", "name": "日産レンタカー富山駅前店", "nameEn": "NISSAN Rent-a-Car Toyama Sta", "latitude": 36.70060328, "longitude": 137.2099448 },
    { "area": "富山", "industry": "重要交通施設", "name": "富山空港 国内線付近", "nameEn": "Toyama Airport Domestic Terminal", "latitude": 36.64346017, "longitude": 137.1894825 },
    { "area": "富山", "industry": "重要交通施設", "name": "富山空港 国際線付近", "nameEn": "Toyama Airport international Terminal", "latitude": 36.64420077, "longitude": 137.1897483 },
    { "area": "高岡・氷見・射水", "industry": "体験・観光施設", "name": "海王丸パーク", "nameEn": "Kaiwomaru Park", "latitude": 36.7811342, "longitude": 137.1092219 },
    { "area": "高岡・氷見・射水", "industry": "体験・観光施設", "name": "新湊きっときと市場", "nameEn": "Shinminato Kitokito Market", "latitude": 36.78132173, "longitude": 137.0997535 },
    { "area": "高岡・氷見・射水", "industry": "体験・観光施設", "name": "道の駅カモンパーク新湊", "nameEn": "Shinminato Roadside Station", "latitude": 36.75195056, "longitude": 137.0849005 },
    { "area": "高岡・氷見・射水", "industry": "体験・観光施設", "name": "道の駅雨晴", "nameEn": "Amaharashi Roadside Station", "latitude": 36.8149522, "longitude": 137.0414829 },
    { "area": "高岡・氷見・射水", "industry": "重要交通施設", "name": "ますのすし本舗 源（新高岡駅）", "nameEn": "Masunosushi Minamoto Shintakaoka Sta", "latitude": 36.72692481, "longitude": 137.0114777 },
    { "area": "高岡・氷見・射水", "industry": "体験・観光施設", "name": "道の駅 氷見 氷見漁港場外市場 ひみ番屋街", "nameEn": "Himi Banya-gai Harbour Market", "latitude": 36.86449407, "longitude": 136.9865724 },
    { "area": "高岡・氷見・射水", "industry": "体験・観光施設", "name": "道の駅メルヘンおやべ", "nameEn": "Roadside Station Merchen Oyabe", "latitude": 36.6895402, "longitude": 136.8767349 },
    { "area": "高岡・氷見・射水", "industry": "重要交通施設", "name": "小矢部川SA（下り）", "nameEn": "Oyabegawa SA (Down)", "latitude": 36.62723199, "longitude": 136.8736353 },
    { "area": "高岡・氷見・射水", "industry": "重要交通施設", "name": "小矢部川SA（上り）", "nameEn": "Oyabegawa SA (UP)", "latitude": 36.62609109, "longitude": 136.8726105 },
    { "area": "砺波・五箇山", "industry": "体験・観光施設", "name": "道の駅庄川", "nameEn": "Roadside station Shogawa", "latitude": 36.5742884, "longitude": 136.9800836 },
    { "area": "砺波・五箇山", "industry": "体験・観光施設", "name": "チューリップ四季彩館", "nameEn": "Tonami Tulip Gallery", "latitude": 36.6411529, "longitude": 136.9648698 },
    { "area": "砺波・五箇山", "industry": "体験・観光施設", "name": "五箇山・相倉合掌集落", "nameEn": "Gokayama Ainokura", "latitude": 36.42741691, "longitude": 136.9365334 },
    { "area": "能登", "industry": "特産品・小売店", "name": "イカの駅 つくモール", "nameEn": "Ikanoeki TsukuMall", "latitude": 37.31265816, "longitude": 137.2304999 },
    { "area": "能登", "industry": "重要交通施設", "name": "のと里山空港", "nameEn": "Noto Airport", "latitude": 37.29511271, "longitude": 136.9574889 },
    { "area": "金沢", "industry": "特産品・小売店", "name": "近江町市場", "nameEn": "Omicho Market", "latitude": 36.5712204, "longitude": 136.6568026 },
    { "area": "金沢", "industry": "特産品・小売店", "name": "ひがし茶屋街・玉匣", "nameEn": "Higashichaya Tamakishige", "latitude": 36.5724679, "longitude": 136.6669396 },
    { "area": "金沢", "industry": "体験・観光施設", "name": "ひがし茶屋街・金箔屋さくだ 本店", "nameEn": "Higashichaya Gold Leaf Sakuda", "latitude": 36.57385866, "longitude": 136.6663069 },
    { "area": "金沢", "industry": "体験・観光施設", "name": "石川県立伝統産業工芸館", "nameEn": "Traditional Arts and Crafts of Ishikawa", "latitude": 36.56115303, "longitude": 136.6639819 },
    { "area": "金沢", "industry": "体験・観光施設", "name": "兼六園 桂坂料金所", "nameEn": "Kenrokuen Garden katsurazaka", "latitude": 36.56436081, "longitude": 136.6621371 },
    { "area": "金沢", "industry": "体験・観光施設", "name": "金沢城公園 総合案内所", "nameEn": "Kanazawa Castle Park Info", "latitude": 36.56575842, "longitude": 136.6613945 },
    { "area": "金沢", "industry": "体験・観光施設", "name": "兼六園 真弓坂料金所", "nameEn": "Kenrokuen Garden mayumizaka", "latitude": 36.56215941, "longitude": 136.6605942 },
    { "area": "金沢", "industry": "体験・観光施設", "name": "金沢城公園 五十間長屋", "nameEn": "Kanazawa Castle Park Gojukken Nagaya", "latitude": 36.56569769, "longitude": 136.6595692 },
    { "area": "金沢", "industry": "その他", "name": "金沢21世紀美術館", "nameEn": "21st Century Museum of Contemporary Art Kanazawa", "latitude": 36.56096179, "longitude": 136.6585305 },
    { "area": "金沢", "industry": "特産品・小売店", "name": "紙文房あらき", "nameEn": "Kamibunbou-Araki Origami stationery store", "latitude": 36.5716131, "longitude": 136.655659 },
    { "area": "金沢", "industry": "その他", "name": "尾山神社", "nameEn": "Oyama-jinja Shrine", "latitude": 36.56609654, "longitude": 136.6554159 },
    { "area": "金沢", "industry": "体験・観光施設", "name": "金沢中央観光案内所 ", "nameEn": "Kanazawa Central Tourist Info CT", "latitude": 36.56650511, "longitude": 136.6536373 },
    { "area": "金沢", "industry": "体験・観光施設", "name": "武家屋敷跡 野村家", "nameEn": "Nomura-ke Samurai Residence", "latitude": 36.56421474, "longitude": 136.6500812 },
    { "area": "金沢", "industry": "重要交通施設", "name": "金沢駅観光案内所（金沢駅）", "nameEn": "Kanazawa Station Tourist Info CT", "latitude": 36.57855189, "longitude": 136.6486658 },
    { "area": "金沢", "industry": "体験・観光施設", "name": "スカイ獅子吼", "nameEn": "Shishiku Highland", "latitude": 36.4464488, "longitude": 136.6480189 },
    { "area": "金沢", "industry": "重要交通施設", "name": "日産レンタカー金沢駅前店", "nameEn": "NISSAN Rent-a-Car Kanazawa Sta. store", "latitude": 36.57523138, "longitude": 136.6479981 },
    { "area": "金沢", "industry": "その他", "name": "北陸鉄道チケットセンター", "nameEn": "Hokuriku Railroad Ticket Center", "latitude": 36.5781144, "longitude": 136.6464696 },
    { "area": "金沢", "industry": "その他", "name": "金沢港クルーズターミナル", "nameEn": "Kanazawa Port Cruise Terminal", "latitude": 36.60798239, "longitude": 136.6144972 },
    { "area": "加賀", "industry": "重要交通施設", "name": "Komatsu 九（小松駅）", "nameEn": "Komatsu Nine Shopping Center", "latitude": 36.40172714, "longitude": 136.4529362 },
    { "area": "加賀", "industry": "重要交通施設", "name": "小松空港 レンタカーカウンター", "nameEn": "Komatsu Airport Rent-A-Car Info CT", "latitude": 36.40184145, "longitude": 136.4128073 },
    { "area": "加賀", "industry": "重要交通施設", "name": "小松空港 国内線付近", "nameEn": "Komatsu Airport Domestic Terminal", "latitude": 36.40186499, "longitude": 136.4128496 },
    { "area": "加賀", "industry": "重要交通施設", "name": "小松空港 国際線付近", "nameEn": "Komatsu Airport International Terminal", "latitude": 36.39314542, "longitude": 136.406009 },
    { "area": "加賀", "industry": "その他", "name": "山中温泉総湯 菊の湯", "nameEn": "Yamanaka Onsen Kikunoyu", "latitude": 36.24684299, "longitude": 136.3732055 },
    { "area": "加賀", "industry": "その他", "name": "山中座", "nameEn": "Yamanakaza Hall", "latitude": 36.24715242, "longitude": 136.3728475 },
    { "area": "加賀", "industry": "その他", "name": "加賀片山津温泉 総湯", "nameEn": "Katayamazu Onsen Souyu", "latitude": 36.34533918, "longitude": 136.3689476 },
    { "area": "加賀", "industry": "その他", "name": "山代温泉 総湯", "nameEn": "Yamanaka Onsen Souyu", "latitude": 36.28864593, "longitude": 136.3614641 },
    { "area": "加賀", "industry": "重要交通施設", "name": "加賀市観光情報センター（加賀温泉駅）", "nameEn": "Kaga City Tourist Info CT(Kagaonsen Sta)", "latitude": 36.31980393, "longitude": 136.3516994 },
    { "area": "加賀", "industry": "重要交通施設", "name": "尼御前SA（下り）", "nameEn": "Amagozen SA(Down)", "latitude": 36.35416458, "longitude": 136.323814 },
    { "area": "加賀", "industry": "重要交通施設", "name": "尼御前SA（上り）", "nameEn": "Amagozen SA(UP)", "latitude": 36.35126524, "longitude": 136.3227109 },
    { "area": "永平寺・奥越", "industry": "その他", "name": "道の駅 越前おおの荒島の郷", "nameEn": "Roadside Station Echizen Ono Arashima no Sato", "latitude": 35.9717444, "longitude": 136.5526415 },
    { "area": "永平寺・奥越", "industry": "体験・観光施設", "name": "越前大仏", "nameEn": "Echizen Great Buddha", "latitude": 36.05367434, "longitude": 136.5192086 },
    { "area": "永平寺・奥越", "industry": "体験・観光施設", "name": "福井県立恐竜博物館", "nameEn": "Fukui Prefectural Dinosaur Museum", "latitude": 36.0825328, "longitude": 136.5065917 },
    { "area": "永平寺・奥越", "industry": "体験・観光施設", "name": "越前おおの結楽座", "nameEn": "Echizen Ono Yuirakuza", "latitude": 35.98479216, "longitude": 136.486941 },
    { "area": "永平寺・奥越", "industry": "体験・観光施設", "name": "大本山永平寺", "nameEn": "Eiheiji Temple", "latitude": 36.0566917, "longitude": 136.3568566 },
    { "area": "あわら・坂井", "industry": "体験・観光施設", "name": "丸岡城", "nameEn": "Maruoka Castle", "latitude": 36.15236679, "longitude": 136.2721021 },
    { "area": "あわら・坂井", "industry": "重要交通施設", "name": "芦原温泉駅観光案内所（芦原温泉駅）", "nameEn": "Awara Onsen Sta Tourist Info CT", "latitude": 36.2149158, "longitude": 136.2347964 },
    { "area": "あわら・坂井", "industry": "体験・観光施設", "name": "あわら湯のまち駅 あわら温泉情報処「おしえる座ぁ」", "nameEn": "Oshieruzaa Awara Onsen Info CT", "latitude": 36.22316063, "longitude": 136.193845 },
    { "area": "あわら・坂井", "industry": "体験・観光施設", "name": "東尋坊正太楼", "nameEn": "Tojinbo Cliffs Shotaroh", "latitude": 36.2376115, "longitude": 136.1266015 },
    { "area": "福井", "industry": "体験・観光施設", "name": "特別史跡 一乗谷朝倉氏遺跡", "nameEn": "Ichijodani Asakura Clan Historic Ruins", "latitude": 35.99948737, "longitude": 136.2959307 },
    { "area": "福井", "industry": "その他", "name": "えちぜん鉄道 福井駅", "nameEn": "Echizen Railway Fukui Sta", "latitude": 36.06198951, "longitude": 136.2237914 },
    { "area": "福井", "industry": "重要交通施設", "name": "ふくい観光案内所（福井駅） ", "nameEn": "Fukui Tourist Information CT", "latitude": 36.06161976, "longitude": 136.2236096 },
    { "area": "福井", "industry": "重要交通施設", "name": "日産レンタカー福井駅前店", "nameEn": "NISSAN Rent-a-Car Fukui Sta. store", "latitude": 36.06292649, "longitude": 136.2218754 },
    { "area": "丹南", "industry": "重要交通施設", "name": "南条SA（下り）", "nameEn": "Nanjo Rest Area (Down)", "latitude": 35.8256725, "longitude": 136.2017076 },
    { "area": "丹南", "industry": "重要交通施設", "name": "南条SA（上り）", "nameEn": "Nanjo Rest Area (Up)", "latitude": 35.83058903, "longitude": 136.2016403 },
    { "area": "丹南", "industry": "特産品・小売店", "name": "道の駅 南えちぜん山海里", "nameEn": "Roadside Station Minami Echizen Sankairi", "latitude": 35.8315816, "longitude": 136.2013107 },
    { "area": "丹南", "industry": "重要交通施設", "name": "道の駅越前たけふ（越前たけふ駅）", "nameEn": "Roadside Station Echizen Takefu", "latitude": 35.8950423, "longitude": 136.1981522 },
    { "area": "丹南", "industry": "体験・観光施設", "name": "道の駅 越前", "nameEn": "Roadside Station Echizen", "latitude": 35.91986609, "longitude": 135.9969773 },
    { "area": "若狭路", "industry": "重要交通施設", "name": "敦賀駅ハピラインお客様カウンター", "nameEn": "Tsuruga Sta Hapi-line Customer Desk", "latitude": 35.64538484, "longitude": 136.0762315 },
    { "area": "若狭路", "industry": "体験・観光施設", "name": "敦賀赤レンガ倉庫", "nameEn": "Tsuruga Red Brick Warehouse", "latitude": 35.6620129, "longitude": 136.0745978 },
    { "area": "若狭路", "industry": "飲食店", "name": "日本海さかな街", "nameEn": "Nihonkai Sakana Machi", "latitude": 35.634584, "longitude": 136.049895 },
    { "area": "若狭路", "industry": "体験・観光施設", "name": "道の駅 若狭美浜はまびより", "nameEn": "Roadside Station Mihama Hamabiyori", "latitude": 35.60455635, "longitude": 135.9366873 },
    { "area": "若狭路", "industry": "特産品・小売店", "name": "道の駅 三方五湖", "nameEn": "Roadside Station Mikatagoko", "latitude": 35.5598231, "longitude": 135.8940067 },
    { "area": "若狭路", "industry": "体験・観光施設", "name": "若狭おばま観光案内所", "nameEn": "Wakasa-Obama Tourist Info CT", "latitude": 35.4924298, "longitude": 135.7453724 },
    { "area": "若狭路", "industry": "体験・観光施設", "name": "若狭フィッシャーマンズワーフ", "nameEn": "Wakasa Fisherman's Wharf", "latitude": 35.5002388, "longitude": 135.7402092 },
    { "area": "立山", "industry": "その他", "name": "立山駅", "nameEn": "Tateyama Sta", "latitude": 36.58331427, "longitude": 137.4451733 }
]
